,nombre,calle,id_local,disponibilidad,tipo,coordenadas,longitud,latitud,estado,nivel_precio,calificacion,numero_calificaciones,foto,cp,aforo
0,Bar Las Cañas,"C. de María de Guzmán, 57",ChIJ99NXDPooQg0RytN6Xl_VbV4,Desconocido,"['bar', 'point_of_interest', 'establishment']","[40.4440766, -3.6966739]",-3.6966739,40.4440766,CLOSED_TEMPORARILY,1.0,3.8,30,https://maps.googleapis.com/maps/api/place/photo?maxwidth=400&photo_reference=Aap_uEB043CdYixtSSsV1YIRT0FSGZDV86g9Vn88UQWnhsg_r9y-LhtzT6E4l_ep9mxy1zFKa_Of5PLbppMlEbZ5bfDq4rwrvz_ubf8DITn15DzNbHGwGT_VQhRACISAWVpEb0OToLRuwQKawbf57zPGI621DaHiYuX8E3RPVawrcfggRxmB&key=AIzaSyAMPRgLpuErhhf6Bcg9OuS6V97GPOLqsjg,28003 ,No disponible
1,Bar Hernani 45,"28020, Calle de Hernani, 45",ChIJC_-DMfkoQg0R9mSxdnA0CBY,Abierto,"['bar', 'restaurant', 'food', 'point_of_interest', 'establishment']","[40.4482721, -3.699589599999999]",-3.699589599999999,40.4482721,OPERATIONAL,1.0,3.9,45,https://maps.googleapis.com/maps/api/place/photo?maxwidth=400&photo_reference=Aap_uEDhje-UoZOvuI4bquFxlIM8ejWoJk9NJ0Hkr2nOcaQy6T6AgPoqeMR4pA1x8ToaYiANxZHaqqYZS_lSHKp5yObyuJKkx-u673RXv8YWA7y05ScA4hxGYEJQmtc0UkXeKfJk3cLYYxxsuK8jvDy7na87TwhAxJ1PQeLGNBUoS5jyzqiX&key=AIzaSyAMPRgLpuErhhf6Bcg9OuS6V97GPOLqsjg,28020 ,No disponible
2,Bar Cuata Time,"Calle de Zurbano, 73",ChIJ6Y6QC_IoQg0RcWmjyxVpcPg,Abierto,"['bar', 'point_of_interest', 'establishment']","[40.4376636, -3.6931119]",-3.6931119,40.4376636,OPERATIONAL,,4.0,2,,28010 ,No disponible
3,Taberna Bar,"Calle de García de Paredes, 80",ChIJ7TcpZfIoQg0R-rY0s-6vA48,Abierto,"['bar', 'restaurant', 'food', 'point_of_interest', 'establishment']","[40.4365501, -3.6934144]",-3.6934144,40.4365501,OPERATIONAL,,4.6,8,,28010 ,No disponible
4,Los Torreznos Bar Alonso Cano Cervecería en Madrid,"C. de Alonso Cano, 69",ChIJJQYQAEspQg0R7uSuCtkhQ-4,Abierto,"['bar', 'restaurant', 'food', 'point_of_interest', 'establishment']","[40.44133430000001, -3.6976293]",-3.6976293,40.44133430000001,OPERATIONAL,,4.2,1905,https://maps.googleapis.com/maps/api/place/photo?maxwidth=400&photo_reference=Aap_uEB7p-nV61IrKTb8fbFzD80vcnDfU5Fu3gIL1_wnZK7hyp-Uox7spAOmVxPzk1rEnkkSAyCQrajx6grr_TQWpCggaDlXnRJF1yh5u0Rt1Bdv40rdesd5LwsrpqvmtLrJsGcGBbwCEH9QgpaGmPkVt7E-yLcQs0DLHL7JOR977dq8BdWV&key=AIzaSyAMPRgLpuErhhf6Bcg9OuS6V97GPOLqsjg,28003 ,No disponible
5,Café Bar King,"Calle de Zurbano, 83",ChIJUWxT4vEoQg0RnVFkj6AjkEw,Abierto,"['bar', 'point_of_interest', 'establishment']","[40.4395643, -3.6928463]",-3.6928463,40.4395643,OPERATIONAL,1.0,4.5,67,https://maps.googleapis.com/maps/api/place/photo?maxwidth=400&photo_reference=Aap_uEBvA9tBcer3fzekr1Kuo-1PaUP6OtNzHAq95Yp_Ca7w1HPrxtnRt6BtQ4S2oSf99WDIcCBdA7xddvXx3-eHBZ3NOjBiUko50YbdboNL0IRgGBHmBE-BehtkFWGxGYJWrJ8FmmD5cxvs1cdRT_aq1bg1rlZwfluXuWa74zDr_X1tL1IF&key=AIzaSyAMPRgLpuErhhf6Bcg9OuS6V97GPOLqsjg,28010 ,No disponible
6,Bar El 34,"C. de Raimundo Fernández Villaverde, 34",ChIJ5S29aeMoQg0RIwRC_B_dXSo,Abierto,"['bar', 'point_of_interest', 'establishment']","[40.4460222, -3.6984279]",-3.6984279,40.4460222,OPERATIONAL,,4.2,5,,28046 ,No disponible
7,Las Bridas Bar S A,"Calle de José Abascal, 59",ChIJt7xn-O0oQg0R_yKaszUd9LE,Abierto,"['bar', 'point_of_interest', 'establishment']","[40.4383038, -3.6927804]",-3.6927804,40.4383038,OPERATIONAL,2.0,3.8,312,https://maps.googleapis.com/maps/api/place/photo?maxwidth=400&photo_reference=Aap_uEAoNefFgml8bG0yPQ-VMgljQ2E2azZZf2MfLWijSK5MxwPafgeA8ZzciFwp0l4ck3KORMOyO04PsCh9BYFOGFrSOMJ0EaNnWhXtdnvtoONJM6YFivha4e1upAqHKhTnpVtKShRzvEqzMjrhHkmMzn6E6Tzn4aCvK3YqY6nt3ZvakAL9&key=AIzaSyAMPRgLpuErhhf6Bcg9OuS6V97GPOLqsjg,28003 ,No disponible
8,Bar Cervecería,"Calle de Sta Engracia, 134",ChIJhz5D7PcoQg0Rn7YChNbiyMU,Abierto,"['bar', 'point_of_interest', 'establishment']","[40.44284890000001, -3.7019229]",-3.7019229,40.44284890000001,OPERATIONAL,,2.4,11,https://maps.googleapis.com/maps/api/place/photo?maxwidth=400&photo_reference=Aap_uECiZZcauPZ1i1eL7S7IF_b7xgrEqLDsgQeXMJL5IXuPrVojdEHwLvoo9-6jiIkux3VAZPFg_A4JqHrmBofyVj-OdVIElouJoJI5vKLZ17GGtIDlprECy6S6yvpAQ1zt7L5rVAd06KTSX6LAUef3baaRxcgzj9Hrs5h8YuxnDEFzZ7TR&key=AIzaSyAMPRgLpuErhhf6Bcg9OuS6V97GPOLqsjg,28003 ,No disponible
9,Bar Rubí,"Gta. de Cuatro Caminos, 5",ChIJMaQkPlYoQg0RkRyNDdUFWzI,Abierto,"['bar', 'night_club', 'point_of_interest', 'establishment']","[40.4473977, -3.7042338]",-3.7042338,40.4473977,OPERATIONAL,1.0,3.9,252,https://maps.googleapis.com/maps/api/place/photo?maxwidth=400&photo_reference=Aap_uEChBctZ8q1GCcJLhaiI1xFT7nhChgs0qG8YubT3Lgu7huyGXO_3DWlyDIEiX-LBUfVNWuqhmr834GF1GaCG_aIvWV8lSs7DTiF7cvIQfB7EY7sVZlwN9fbc8K3GYZ4QnRMM1x9q2HDixatu2Um61Ld9prNynEpYh17Ab6dOLyt2z94t&key=AIzaSyAMPRgLpuErhhf6Bcg9OuS6V97GPOLqsjg,28020 ,No disponible
10,Bar Py,"C. de los Artistas, 14",ChIJc97tovgoQg0RReUvIOTf6Rk,Abierto,"['bar', 'point_of_interest', 'establishment']","[40.4473109, -3.7023826]",-3.7023826,40.4473109,OPERATIONAL,,4.4,19,https://maps.googleapis.com/maps/api/place/photo?maxwidth=400&photo_reference=Aap_uEDojj3IvlVHah5_Q5kOiZi4rUoYU1angAAf0lWQDbxnz0btE6wso03i9ZKVnG4CSn7lTOIt95D-P0wyEAT_Ayl3_iCaf9byq2oymiofeNFt_b1q3db6TApuiLLjRnSygiQZh5Qv801zNqgOm2qLnmBjGEG0T7oXbjuh9RSR6I1_xPza&key=AIzaSyAMPRgLpuErhhf6Bcg9OuS6V97GPOLqsjg,28020 ,No disponible
11,El Refugio Bar Cerveceria,"Metro, C. de Hernani, 14",ChIJMe-wq_goQg0RaAweA0VWVoU,Abierto,"['bar', 'restaurant', 'food', 'point_of_interest', 'establishment']","[40.4482489, -3.7027218]",-3.7027218,40.4482489,OPERATIONAL,1.0,4.8,54,https://maps.googleapis.com/maps/api/place/photo?maxwidth=400&photo_reference=Aap_uEDaImuSCg9B3VEI257_Xdld7yPBPozCKur5TO_lc2bgpRwEU7Vi5vaCPJM051FtFABn8Yf8hvUWZsDSFHOMMK-j6WT9y0EGEmv25df6sx_C5OBSn0L-VTcNLUGtEWmBx7Xg-YqEleBDuJbOJfld356SbV3DaskzM_frghcX3YI-Vctb&key=AIzaSyAMPRgLpuErhhf6Bcg9OuS6V97GPOLqsjg,28020 ,No disponible
12,Bar Restaurante Ponzano,"C. de Ponzano, 12",ChIJKQ5xO_QoQg0RyNuIbVqsi5g,Abierto,"['bar', 'restaurant', 'food', 'point_of_interest', 'establishment']","[40.4375802, -3.6993117]",-3.6993117,40.4375802,OPERATIONAL,2.0,3.9,1221,https://maps.googleapis.com/maps/api/place/photo?maxwidth=400&photo_reference=Aap_uEAnrDTgs9NKI3SxXNmyPsmtJ-vI6dAU3O6rs1XLEGW4v_b4yWCHlfXcmK5QZAesymsqafSecGa3k0ROBm-riDK89JtT8_ljRgx6BKqlNpHA2nP4RWuGWPzJHQRzmYSxBxhqQXD8LI7k68lOhnupjVCVneyZr3Xinq7QzOT5N2BxdPTS&key=AIzaSyAMPRgLpuErhhf6Bcg9OuS6V97GPOLqsjg,28010 ,No disponible
13,Lead Bar Madrid,"C. de Trafalgar, 8",ChIJw_-g0cIpQg0Rs9evw6kx1h8,Abierto,"['bar', 'restaurant', 'food', 'point_of_interest', 'establishment']","[40.4315124, -3.700257]",-3.700257,40.4315124,OPERATIONAL,,4.5,123,https://maps.googleapis.com/maps/api/place/photo?maxwidth=400&photo_reference=Aap_uECMWdK51mY2kMeo4ySS-DAcriTP3wVB_Qy1vGoLGsm3H4CXFaAEAaBMjteO--RiCvVIITKdNMyHoakCgFVTXiSjI9rjquu27b1Kh2dzCq8s5JSdpGyH3rlOkvBO_m2qrlryvI1pNUcJhdh3Rh06GBuPYowABnq8Y8j0picJRb7cw6pv&key=AIzaSyAMPRgLpuErhhf6Bcg9OuS6V97GPOLqsjg,28010 ,No disponible
14,Bar Asturias,"C. de Trafalgar, 18",ChIJWUgy3oooQg0RCO9HzdfCgiY,Abierto,"['bar', 'restaurant', 'food', 'point_of_interest', 'establishment']","[40.432108, -3.7004123]",-3.7004123,40.432108,OPERATIONAL,,3.6,281,https://maps.googleapis.com/maps/api/place/photo?maxwidth=400&photo_reference=Aap_uEBmb9jBwqp5NQYc2skP5WtMDSSJbZURXv2WgTUHmxwh9hotaHZSmhp_K-Dap8MPDIirMbo1T-MMvEczDugYcpromV8iibg6ZHfERxH5wV7Fa39zGHw8RNk1qQ38AsDKY5fPwJYUTZjwoN8RKwQcU9jt7LLkLPOjcAH7WkTQj8PAPDh3&key=AIzaSyAMPRgLpuErhhf6Bcg9OuS6V97GPOLqsjg,28010 ,No disponible
15,El Doble,"Calle de José Abascal, 16",ChIJ88gpJ_QoQg0RwR7iFI73PtE,Abierto,"['bar', 'restaurant', 'food', 'point_of_interest', 'establishment']","[40.4383042, -3.699477]",-3.699477,40.4383042,OPERATIONAL,2.0,3.9,1755,https://maps.googleapis.com/maps/api/place/photo?maxwidth=400&photo_reference=Aap_uEAeJcxzYWmaNiA8sF6znOL7ECSGRkPfr1IwMHzEzXADglFkzh2hOWqz0j2GjQQhN3cFE7qD3AOMEWJnw6oligjVoEhSDFLNAH57BRJ8k9nU6jeSZ-QtSUaNbC5HPa-hx0YYZqA1d0wxq2xTsKekIN8kkRiyF8p2rTV56bT9IfsQgeIZ&key=AIzaSyAMPRgLpuErhhf6Bcg9OuS6V97GPOLqsjg,28010 ,No disponible
16,Bar Caracol,"C. Topete, 5",ChIJQ64O0FUoQg0RdU9KGpw7USM,Desconocido,"['bar', 'point_of_interest', 'establishment']","[40.4490218, -3.704869899999999]",-3.704869899999999,40.4490218,CLOSED_TEMPORARILY,,3.6,22,,28039 ,No disponible
17,Cervecería El Doble,"C. de Ponzano, 58",ChIJ0zSRG-0pQg0RZsoQ1B8j9pc,Abierto,"['bar', 'liquor_store', 'store', 'restaurant', 'food', 'point_of_interest', 'establishment']","[40.4415222, -3.69899]",-3.69899,40.4415222,OPERATIONAL,,3.3,203,https://maps.googleapis.com/maps/api/place/photo?maxwidth=400&photo_reference=Aap_uEDtZSBPraB0vOO9QBwAG2scpRTmOmIs41nyiA5jCPsda-lBMH_v2pE_4wvE_iHbtri00JitfqSVKfdkdrdthsRPW-r9j0ZzHG6zU-N_umwWh2JxGaBIe0fu7TfgNQaYcyxIQ_zwu8jHrAOv8VlJ3ibA2dqUMPSDbOiP25mPz2BeLIik&key=AIzaSyAMPRgLpuErhhf6Bcg9OuS6V97GPOLqsjg,28003 ,No disponible
18,El Secreto De Ponzano,"C. de Ponzano, 48",ChIJ8-1d5_YoQg0RYDzlTHqfhjs,Abierto,"['bar', 'restaurant', 'food', 'point_of_interest', 'establishment']","[40.440591, -3.6990197]",-3.6990197,40.440591,OPERATIONAL,2.0,3.6,1618,https://maps.googleapis.com/maps/api/place/photo?maxwidth=400&photo_reference=Aap_uEBBYqRam3gP911KahnLrUiO_EVEFXduevFpVN0f3kXfTe7XFpvWr_YDy7hBuouc_AfJLxRvGiBWBQ4BdSMXQ-ZzAdn6GXXB3mguzLd2wq52AOnsMabZrwqCs8NnOJbuGpTsyZ9_EJt-ITpU0ZTQ_z29JLJPCTT3F-T706af5P-5ldJJ&key=AIzaSyAMPRgLpuErhhf6Bcg9OuS6V97GPOLqsjg,28003 ,No disponible
19,Bar La Placita,"C. de Gabriel Lobo, 10",ChIJg7-t6MIoQg0RWN-DwTX2LeM,Abierto,"['bar', 'point_of_interest', 'establishment']","[40.4424331, -3.6807991]",-3.6807991,40.4424331,OPERATIONAL,1.0,4.3,143,https://maps.googleapis.com/maps/api/place/photo?maxwidth=400&photo_reference=Aap_uEBQzdGLLbfN33M7qbepVzrxvctblkqtdHzddw4DkOq8AMPksD5C7KxnsziapTlGLHjyjakgfyAB5RvbYeqh1G_2AB_FjgikQRTAEnV_3hlXGSSNQZQtbyxChzleZxTtsB6XVhJR8lUWNvhq0KoeQYTHjwJskdD-s24ZRs9Ucni8ildT&key=AIzaSyAMPRgLpuErhhf6Bcg9OuS6V97GPOLqsjg,28002 ,No disponible
